{
  "norad_id": 57935,
  "name": "STARLINK-30712",
  "history": [
    {
      "epoch": "2026-03-28T21:24:33.614208",
      "apogee_km": 476.09184752524834,
      "perigee_km": 474.37850448124846,
      "latitude_deg": 37.727090736754135,
      "longitude_deg": 59.13734911987558,
      "semi_major_axis_km": 6853.372176003249,
      "eccentricity": 0.000125,
      "inclination_deg": 53.1615,
      "raan_deg": 295.0067,
      "arg_perigee_deg": 99.4723,
      "mean_anomaly_deg": 260.6419,
      "mean_motion_rev_day": 15.30193266
    }
  ]
}